484554 (484554),e,10.4982,131.7016,81.6820,2.755305,0.2155011,0.26071937,262.5693,05/05.0/2025,2000,H17.39,0.15
# From MPO891573
484688 (484688),e,3.4117,298.1062,41.6625,2.368269,0.2704317,0.21951622,238.2372,05/05.0/2025,2000,H18.32,0.15
# From MPO700637
484839 (484839),e,6.5972,155.7477,86.5846,2.638455,0.2299744,0.28336068,253.6791,05/05.0/2025,2000,H17.87,0.15
# From MPO700640
484976 (484976),e,37.4289,141.9526,338.7658,2.327804,0.2775137,0.57557768,110.4301,05/05.0/2025,2000,H18.52,0.15
# From MPO700665
486322 (486322),e,10.4556,358.4043,112.2048,2.427752,0.2605539,0.20093134,113.5913,05/05.0/2025,2000,H17.81,0.15
# From MPO700667
486386 (486386),e,3.0111,25.0485,202.1606,2.610872,0.2336285,0.18148510,276.7388,05/05.0/2025,2000,H17.94,0.15
# From MPO700672
486692 (486692),e,7.1942,199.9818,61.3620,1.523595,0.5240827,0.58849057,84.1857,05/05.0/2025,2000,H19.37,0.15
# From MPEC 2024-C06
486958 Arrokoth,e,2.4483,159.0921,189.2408,44.09427,0.0033661,0.03736930,309.3729,05/05.0/2025,2000,H11.06,0.15
# From MPO700689
487577 (487577),e,10.9178,81.8275,252.3432,0.963773,1.0416988,0.23573744,79.2816,05/05.0/2025,2000,H21.08,0.15
# From MPO700689
487583 (487583),e,4.4259,291.1795,98.2092,1.024500,0.9504653,0.30953429,47.0883,05/05.0/2025,2000,H22.19,0.15
# From MPO700706
488465 (488465),e,7.9296,213.5771,24.9212,2.158113,0.3108801,0.42755946,180.9004,05/05.0/2025,2000,H19.84,0.15
# From MPO700707
488515 (488515),e,8.8130,98.3828,145.4456,1.934406,0.3663385,0.49530874,329.8698,05/05.0/2025,2000,H20.71,0.15
# From MPEC 2023-Y06
488590 (488590),e,2.7630,235.4240,100.2127,2.621456,0.2322150,0.31445146,123.6855,05/05.0/2025,2000,H18.20,0.15
# From MPO700709
488624 (488624),e,16.1914,177.0657,117.6174,3.084271,0.1819597,0.29323769,119.2530,05/05.0/2025,2000,H17.14,0.15
# From MPO700709
488644 (488644),e,2.5785,35.6465,251.9116,42.42500,0.0035667,0.03358331,301.6784,05/05.0/2025,2000,H 7.93,0.15
# From MPEC 2023-D55
488789 (488789),e,38.2281,94.0487,104.0209,1.451064,0.5638639,0.68862655,201.6640,05/05.0/2025,2000,H19.13,0.15
# From MPO700713
488837 (488837),e,5.1485,315.2794,4.6405,2.276146,0.2870145,0.20195355,275.0440,05/05.0/2025,2000,H18.91,0.15
# From MPO700713
488865 (488865),e,11.7561,14.2972,308.3431,2.474188,0.2532532,0.27428017,39.5946,05/05.0/2025,2000,H18.14,0.15
# From MPO700714
488877 (488877),e,4.4499,203.4444,123.1557,2.307527,0.2811796,0.23426925,240.1766,05/05.0/2025,2000,H18.78,0.15
# From MPO700716
489002 (489002),e,4.2636,34.0975,304.2672,2.334353,0.2763467,0.36802780,199.9907,05/05.0/2025,2000,H18.30,0.15
# From MPO700720
489231 (489231),e,4.8238,326.7946,1.1526,2.140731,0.3146741,0.24199147,0.2710,05/05.0/2025,2000,H19.02,0.15
# From MPO700722
489337 (489337),e,15.8901,56.9297,55.3085,2.234225,0.2951302,0.53953768,176.0016,05/05.0/2025,2000,H18.51,0.15
# From MPO700723
489387 (489387),e,4.2232,8.3977,331.6984,2.233869,0.2952009,0.18204191,235.9100,05/05.0/2025,2000,H19.12,0.15
# From MPO700726
489532 (489532),e,3.6119,14.8157,2.1867,2.559637,0.2406781,0.36558275,103.7698,05/05.0/2025,2000,H18.95,0.15
# From MPO700727
489588 (489588),e,0.9005,193.1382,160.4558,2.363719,0.2712129,0.20805955,324.1776,05/05.0/2025,2000,H18.34,0.15
# From MPO700727
489608 (489608),e,2.4978,166.2103,194.4658,2.587296,0.2368290,0.22263016,101.0341,05/05.0/2025,2000,H18.76,0.15
# From MPO700733
489891 (489891),e,4.4739,199.6075,119.2648,2.772426,0.2135080,0.39637269,202.1860,05/05.0/2025,2000,H17.63,0.15
# From MPO700735
490034 (490034),e,8.4849,216.1736,214.0596,3.109336,0.1797640,0.07008585,312.9711,05/05.0/2025,2000,H17.27,0.15
# From MPO700737
490111 (490111),e,11.2023,208.5955,139.0266,2.577589,0.2381681,0.21646347,23.1232,05/05.0/2025,2000,H18.28,0.15
# From MPO700738
490187 (490187),e,3.5844,262.2089,93.9081,2.581824,0.2375823,0.33827051,22.7183,05/05.0/2025,2000,H18.41,0.15
# From MPO700738
490193 (490193),e,11.4970,256.7875,103.5479,2.570567,0.2391447,0.30331566,18.4182,05/05.0/2025,2000,H17.93,0.15
# From MPO700739
490216 (490216),e,12.5342,214.1458,135.1162,2.580920,0.2377071,0.29842197,26.4936,05/05.0/2025,2000,H17.98,0.15
# From MPO700747
490662 (490662),e,4.8454,347.4464,318.9000,2.414609,0.2626841,0.27893504,342.3725,05/05.0/2025,2000,H18.11,0.15
# From MPEC 2023-Y63
490745 (490745),e,5.7010,157.2729,180.6293,2.585391,0.2370908,0.25178945,203.9525,05/05.0/2025,2000,H17.70,0.15
# From MPO700750
490791 (490791),e,7.1489,54.8688,98.6646,1.995570,0.3496259,0.36243230,340.1576,05/05.0/2025,2000,H19.85,0.15
# From MPO700754
491037 (491037),e,1.0853,275.4102,76.6244,2.414396,0.2627190,0.37825388,231.5811,05/05.0/2025,2000,H18.66,0.15
# From MPO700758
491255 (491255),e,3.2892,54.2813,275.2988,2.329227,0.2772595,0.19117134,350.6334,05/05.0/2025,2000,H18.27,0.15
# From MPO700766
491641 (491641),e,3.6505,251.4323,65.9249,2.307113,0.2812554,0.24439049,250.8936,05/05.0/2025,2000,H18.80,0.15
# From MPO700768
491761 (491761),e,3.9684,199.1243,180.5075,2.688189,0.2236219,0.24657581,324.4261,05/05.0/2025,2000,H18.09,0.15
# From MPO700768
491767 (491767),e,30.0554,65.5422,317.3175,39.75981,0.0039313,0.08195254,25.0847,05/05.0/2025,2000,H 7.77,0.15
# From MPO700768
491768 (491768),e,15.6546,116.1226,295.2368,46.47205,0.0031111,0.12286927,0.9101,05/05.0/2025,2000,H 7.40,0.15
# From MPO700777
492237 (492237),e,13.4786,207.9725,161.5461,2.653373,0.2280377,0.25525100,254.5877,05/05.0/2025,2000,H17.61,0.15
# From MPO700781
492472 (492472),e,4.1170,240.7685,83.5193,2.338503,0.2756115,0.15947100,352.3236,05/05.0/2025,2000,H18.09,0.15
# From MPO700782
492478 (492478),e,17.0231,218.4420,179.6688,1.675343,0.4545153,0.68599520,315.7464,05/05.0/2025,2000,H19.69,0.15
# From MPO700787
492763 (492763),e,1.2579,254.1511,55.1098,2.366205,0.2707856,0.22788237,356.9281,05/05.0/2025,2000,H18.34,0.15
# From MPO700788
492818 (492818),e,7.0970,128.2759,220.3229,2.365947,0.2708299,0.12734030,317.2981,05/05.0/2025,2000,H18.36,0.15
# From MPO700818
494394 (494394),e,4.1115,33.8797,331.2580,2.221335,0.2977029,0.18304308,228.2785,05/05.0/2025,2000,H19.14,0.15
# From MPO700819
494484 (494484),e,25.2272,55.2251,272.0845,3.156938,0.1757134,0.34951307,228.4610,05/05.0/2025,2000,H16.79,0.15
# From MPO700823
494675 (494675),e,6.1162,351.3904,9.1639,3.974224,0.1244015,0.33650454,320.2311,05/05.0/2025,2000,H16.00,0.15
# From MPO700823
494696 (494696),e,8.8332,70.3927,242.7875,2.211436,0.2997040,0.41580832,117.8405,05/05.0/2025,2000,H19.47,0.15
# From MPO700824
494713 (494713),e,47.7832,127.3428,310.1615,1.234817,0.7182902,0.37335299,68.0647,05/05.0/2025,2000,H19.43,0.15
# From MPO700826
494825 (494825),e,2.8146,36.7191,317.7347,2.342391,0.2749255,0.22693708,337.6601,05/05.0/2025,2000,H18.62,0.15
# From MPO700830
495021 (495021),e,4.0499,0.8818,96.8396,1.271256,0.6876300,0.03315278,334.1665,05/05.0/2025,2000,H22.70,0.15
# From MPO905102
495189 (495189),e,19.2720,121.1243,222.5303,48.05723,0.0029585,0.17443249,46.7818,05/05.0/2025,2000,H 6.59,0.15
# From MPO891635
495190 (495190),e,26.7771,171.5831,220.8405,55.68363,0.0023720,0.31623395,12.1394,05/05.0/2025,2000,H 7.16,0.15
# From MPO700834
495236 (495236),e,1.9135,220.2210,1.4448,2.465165,0.2546449,0.14920218,29.7355,05/05.0/2025,2000,H19.01,0.15
# From MPO700834
495278 (495278),e,11.5667,169.2338,86.8716,2.697021,0.2225244,0.52783416,261.7671,05/05.0/2025,2000,H18.55,0.15
# From MPO700835
495316 (495316),e,7.1998,24.2763,239.5365,2.108773,0.3218543,0.46879846,203.1071,05/05.0/2025,2000,H20.81,0.15
# From MPO700836
495371 (495371),e,2.0387,322.1930,12.3591,2.414013,0.2627814,0.18311923,314.7268,05/05.0/2025,2000,H18.50,0.15
# From MPO700837
495396 (495396),e,7.6217,325.1371,10.7878,2.376418,0.2690418,0.21411192,322.8350,05/05.0/2025,2000,H17.86,0.15
# From MPO700837
495417 (495417),e,1.8493,191.4632,99.2979,2.170308,0.3082635,0.41556397,153.8674,05/05.0/2025,2000,H19.83,0.15
# From MPO700845
495829 (495829),e,43.5877,276.4289,160.1401,1.064505,0.8973923,0.79065420,11.3000,05/05.0/2025,2000,H18.77,0.15
# From MPO700845
495857 (495857),e,25.1642,258.1775,44.3552,2.788492,0.2116654,0.56076901,242.7652,05/05.0/2025,2000,H19.12,0.15
# From MPO700845
495867 (495867),e,11.0503,290.0466,53.4993,2.655090,0.2278165,0.34208770,270.1339,05/05.0/2025,2000,H17.44,0.15
# From MPO700846
495908 (495908),e,4.6944,347.1207,333.8709,2.555268,0.2412956,0.28721230,311.6391,05/05.0/2025,2000,H18.26,0.15
# From MPO700847
495930 (495930),e,29.9763,278.1320,287.5301,1.488179,0.5429018,0.41779194,174.5198,05/05.0/2025,2000,H19.84,0.15
# From MPO700847
495959 (495959),e,11.3962,109.7004,221.0921,2.233763,0.2952217,0.46530885,110.9870,05/05.0/2025,2000,H18.68,0.15
# From MPO700848
495986 (495986),e,1.6314,228.7220,119.6231,2.359021,0.2720234,0.20770987,325.2699,05/05.0/2025,2000,H18.25,0.15
# From MPO700848
496013 (496013),e,13.1401,177.6567,38.4124,1.728140,0.4338463,0.48089700,180.5855,05/05.0/2025,2000,H21.00,0.15
# From MPO700849
496071 (496071),e,4.3008,336.6261,5.2265,2.575460,0.2384634,0.26462204,295.4756,05/05.0/2025,2000,H18.70,0.15
# From MPO700850
496082 (496082),e,12.5936,202.2218,127.7787,2.576957,0.2382557,0.17232047,306.1209,05/05.0/2025,2000,H17.68,0.15
# From MPO700851
496164 (496164),e,5.4028,276.3125,67.6006,2.358599,0.2720964,0.30307937,43.9061,05/05.0/2025,2000,H18.61,0.15
# From MPO700855
496392 (496392),e,3.2099,354.7970,350.0842,2.586786,0.2368990,0.36052316,293.0091,05/05.0/2025,2000,H18.22,0.15
# From MPEC 2024-EC3
496981 (496981),e,7.9947,163.3412,250.7361,1.661427,0.4602376,0.39057559,176.1049,05/05.0/2025,2000,H21.38,0.15
# From MPO700867
496992 (496992),e,8.0659,7.9599,7.4088,3.961599,0.1249966,0.24840740,302.8612,05/05.0/2025,2000,H15.95,0.15
# From MPO700867
497025 (497025),e,11.2797,164.5222,303.1720,1.053076,0.9120412,0.33159534,293.9035,05/05.0/2025,2000,H20.70,0.15
# From MPO700868
497071 (497071),e,7.2148,35.0006,8.0207,2.329528,0.2772057,0.16083742,11.7347,05/05.0/2025,2000,H18.26,0.15
# From MPO700870
